STARLINK-2112           
1 47391U 21005AU  25173.84298274  .00001540  00000+0  12222-3 0  9995
2 47391  53.0552 118.1124 0001139  84.3659 275.7459 15.06402543244293
STARLINK-2113           
1 47392U 21005AV  25174.24201133 -.00000196  00000+0  57597-5 0  9992
2 47392  53.0564 116.3197 0001585  86.4345 273.6826 15.06396259244962
STARLINK-2114           
1 47393U 21005AW  25174.46735614 -.00001228  00000+0 -63577-4 0  9995
2 47393  53.0551  90.6668 0001380  94.8298 265.2848 15.06398344244732
STARLINK-2117           
1 47395U 21005AY  25174.22082942 -.00006037  00000+0 -38653-3 0  9999
2 47395  53.0584 106.4109 0002712 102.2826 257.8467 15.06411967244491
STARLINK-2119           
1 47397U 21005BA  25174.32770560  .00000760  00000+0  69880-4 0  9994
2 47397  53.0546 145.9395 0001224  70.4973 289.6148 15.06400760243950
STARLINK-2121           
1 47399U 21005BC  25174.27059904  .00000741  00000+0  68651-4 0  9996
2 47399  53.0539 126.4342 0001016  80.4370 279.6734 15.06403758244211
STARLINK-2122           
1 47400U 21005BD  25173.83379159 -.00002206  00000+0 -12916-3 0  9999
2 47400  53.0539 108.1619 0002192  98.0614 262.0624 15.06410152244434
STARLINK-2123           
1 47401U 21005BE  25174.24937933  .00001319  00000+0  10744-3 0  9995
2 47401  53.0542 116.2883 0001581  91.2208 268.8962 15.06403351244978
STARLINK-2128           
1 47404U 21005BH  25174.53688402  .00000033  00000+0  21087-4 0  9999
2 47404  53.0554 114.9976 0001442  92.2555 267.8599 15.06396336245019
STARLINK-2130           
1 47405U 21005BJ  25173.85590675  .00000522  00000+0  53917-4 0  9998
2 47405  53.0543 148.0581 0001360  91.2126 268.9019 15.06396564243874
STARLINK-2133           
1 47406U 21005BK  25173.81813666 -.00000324  00000+0 -28424-5 0  9991
2 47406  53.0543 118.2276 0001355  90.5710 269.5434 15.06388916244297
STARLINK-2134           
1 47407U 21005BL  25174.22357567 -.00003837  00000+0 -23882-3 0  9994
2 47407  53.0557 116.4025 0001468  75.6340 284.4812 15.06400450244961
STARLINK-2135           
1 47408U 21005BM  25174.52582504 -.00000020  00000+0  17543-4 0  9997
2 47408  53.0536 115.0486 0001511  92.1223 267.9939 15.06399162245018
STARLINK-1940           
1 47552U 21009E   25174.58335648  .00296042  00000+0  16623-2 0  9998
2 47552  53.0476  65.9222 0007875 114.6111 345.3180 15.77861432242880
STARLINK-1954           
1 47555U 21009H   25174.51937755 -.00000819  00000+0 -36065-4 0  9992
2 47555  53.0562 105.0793 0001582  92.7787 267.3383 15.06398648242347
STARLINK-1955           
1 47556U 21009J   25174.58335648 -.00009977  00000+0 -41692-3 0  9998
2 47556  53.0530 121.6647 0001593  79.5004 251.9834 15.22067202242103
STARLINK-1958           
1 47559U 21009M   25174.46224606  .00000649  00000+0  62488-4 0  9991
2 47559  53.0554  85.3308 0001333  84.8439 275.2702 15.06397863242615
STARLINK-1959           
1 47560U 21009N   25174.58335648  .00663946  20693-3  13339-2 0  9993
2 47560  53.0304  37.4210 0002898 139.8857 310.5745 15.99156603243294
STARLINK-1962           
1 47563U 21009R   25173.81535824  .00000589  00000+0  58424-4 0  9999
2 47563  53.0556 108.2397 0001392  85.4501 274.6647 15.06401348241622
STARLINK-1964           
1 47565U 21009T   25173.81259579  .00000185  00000+0  31307-4 0  9994
2 47565  53.0545  98.2512 0001573  94.0760 266.0409 15.06401054241763
STARLINK-1965           
1 47566U 21009U   25173.45354925  .00027713  00000+0  11880-2 0  9994
2 47566  53.0431  80.5689 0008747  56.9133 303.2702 15.22541254241987
STARLINK-1966           
1 47567U 21009V   25173.66668981  .00215973  00000+0  19676-2 0  9996
2 47567  53.0254  84.2691 0008094  55.7206 359.0538 15.66686046242544
STARLINK-1967           
1 47568U 21009W   25174.26689094  .00000913  00000+0  80185-4 0  9993
2 47568  53.0541 126.2109 0001560  89.9897 270.1271 15.06395230242027
STARLINK-1971           
1 47572U 21009AA  25173.52140621  .00001316  00000+0  10724-3 0  9993
2 47572  53.0565  99.5620 0001372  88.2380 271.8766 15.06401998241720
STARLINK-1975           
1 47573U 21009AB  25174.49448846 -.00000426  00000+0 -96986-5 0  9990
2 47573  53.0529  95.1879 0001394  92.8385 267.2764 15.06400570242474
STARLINK-1978           
1 47576U 21009AE  25174.44143657  .00026886  00000+0  97365-3 0  9996
2 47576  53.0580  78.1983 0005919  95.6496 264.5178 15.28212688242713
STARLINK-1979           
1 47577U 21009AF  25173.84346632 -.00000258  00000+0  16029-5 0  9994
2 47577  53.0569 103.1130 0001789  93.2946 266.8247 15.06399847241708
STARLINK-1982           
1 47580U 21009AJ  25173.42833103  .00869954  44948-3  81413-3 0  9991
2 47580  53.0391  63.6863 0006606 240.9982 289.8519 16.11542222242816
STARLINK-1986           
1 47582U 21009AL  25174.49971512  .00141659  00000+0  62674-2 0  9997
2 47582  53.0551 102.6697 0001602 105.2765 254.8407 15.20635763242368
STARLINK-1991           
1 47587U 21009AR  25173.52509936  .00000931  00000+0  81397-4 0  9994
2 47587  53.0553  99.5428 0001569  93.2499 266.8670 15.06396393242332
STARLINK-1993           
1 47588U 21009AS  25173.51679692  .00000183  00000+0  31202-4 0  9990
2 47588  53.0556 109.5773 0001503  95.4225 264.6935 15.06396200241583
STARLINK-1994           
1 47589U 21009AT  25174.53043579  .00000226  00000+0  34042-4 0  9996
2 47589  53.0561 105.0287 0001536  87.5294 272.5870 15.06396006242340
STARLINK-1995           
1 47590U 21009AU  25174.25583205 -.00000232  00000+0  33141-5 0  9990
2 47590  53.0556 126.2626 0001182  97.3629 262.7494 15.06403194242010
STARLINK-1997           
1 47592U 21009AW  25173.16479165 -.00000115  00000+0  11196-4 0  9995
2 47592  53.0531 131.1538 0001608  92.2422 267.8751 15.06392583241245
STARLINK-2001           
1 47596U 21009BA  25173.29011737  .00000885  00000+0  78267-4 0  9995
2 47596  53.0542 130.5977 0001093  76.5836 283.5275 15.06396311241264
STARLINK-2021           
1 47604U 21009BJ  25174.17750670 -.00001029  00000+0 -50203-4 0  9992
2 47604  53.0543  96.6136 0001960  96.4831 263.6381 15.06397342242435
STARLINK-2024           
1 47606U 21009BL  25174.51292596  .00000417  00000+0  46922-4 0  9991
2 47606  53.0559  95.1083 0001554  97.8507 262.2658 15.06402131242483
STARLINK-1609           
1 47621U 21012B   25174.36732130  .00000399  00000+0  45647-4 0  9990
2 47621  53.0529 155.7588 0001287  83.5977 276.5158 15.06403051240388
STARLINK-1645           
1 47622U 21012C   25174.36269403  .00001066  00000+0  90425-4 0  9995
2 47622  53.0541 155.7706 0001068  87.9706 272.1406 15.06403967240384
STARLINK-1655           
1 47623U 21012D   25174.17612008 -.00000764  00000+0 -32365-4 0  9993
2 47623  53.0563  91.6233 0001599  97.6729 262.4442 15.06407324241276
STARLINK-1669           
1 47624U 21012E   25174.30282104 -.00002310  00000+0 -13626-3 0  9996
2 47624  53.0555 136.0510 0001105  92.7754 267.3362 15.06400024240653
STARLINK-1704           
1 47625U 21012F   25174.37006669  .00000476  00000+0  50838-4 0  9990
2 47625  53.0536 155.7359 0001173  89.5992 270.5132 15.06399754240383
STARLINK-1761           
1 47626U 21012G   25174.58335648  .00633748  19014-3  12230-2 0  9991
2 47626  53.0422 120.1051 0005975  61.1122 282.6958 15.99835979240902
STARLINK-1972           
1 47627U 21012H   25173.43801835  .00000873  00000+0  77495-4 0  9995
2 47627  53.0565  64.9305 0001540  73.8674 286.2484 15.06397320242068
STARLINK-1973           
1 47628U 21012J   25174.32583864  .00001108  00000+0  93271-4 0  9996
2 47628  53.0543 155.9370 0001369  89.1797 270.9349 15.06398919240370
STARLINK-1983           
1 47630U 21012L   25173.60250865  .00000887  00000+0  78458-4 0  9994
2 47630  53.0545 139.2797 0001124  79.0426 281.0689 15.06398194240543
STARLINK-1992           
1 47632U 21012N   25173.39651578 -.00000182  00000+0  66484-5 0  9994
2 47632  53.0553  65.1213 0001420  99.3497 260.7653 15.06407090242066
STARLINK-2015           
1 47638U 21012U   25174.40743040  .00003505  00000+0  25410-3 0  9992
2 47638  53.0557  60.5796 0001174  98.2176 261.8947 15.06395475241722
STARLINK-2019           
1 47641U 21012X   25174.39268226  .00006157  00000+0  43172-3 0  9993
2 47641  53.0555  60.6468 0001341  94.9788 265.1355 15.06412272241713
STARLINK-2022           
1 47643U 21012Z   25173.66668981  .00011980  00000+0  53109-3 0  9997
2 47643  53.0500 137.5516 0001650  88.2104 218.1160 15.22021775240560
STARLINK-2030           
1 47647U 21012AD  25174.25163047  .01207404  82280-3  18210-2 0  9996
2 47647  53.0437 128.6779 0002000 159.7484 200.3627 16.04187678240758
STARLINK-2031           
1 47648U 21012AE  25174.28439298  .00000444  00000+0  48710-4 0  9994
2 47648  53.0544 136.1337 0001413  90.2330 269.8821 15.06400264240653
STARLINK-2032           
1 47649U 21012AF  25174.28808180  .00001270  00000+0  10414-3 0  9992
2 47649  53.0540 136.1160 0001228  74.7330 285.3795 15.06400804240658
STARLINK-2033           
1 47650U 21012AG  25174.27334234  .00000708  00000+0  66404-4 0  9993
2 47650  53.0546 136.1822 0001501  95.2259 264.8902 15.06396155240647
STARLINK-2036           
1 47652U 21012AJ  25174.33321129  .00000848  00000+0  75792-4 0  9996
2 47652  53.0534 155.9043 0001191  91.2155 268.8970 15.06402771240377
STARLINK-2038           
1 47654U 21012AL  25174.58335648  .00261719  00000+0  14145-2 0  9995
2 47654  53.0405  91.7377 0007072  76.0187 212.6981 15.78815820241296
STARLINK-2039           
1 47655U 21012AM  25173.66700286 -.00000289  00000+0 -47860-6 0  9997
2 47655  53.0539 158.9060 0001332  89.4868 270.6274 15.06396214240792
STARLINK-2040           
1 47656U 21012AN  25173.88262916  .00000138  00000+0  28156-4 0  9991
2 47656  53.0539 137.9362 0001364  87.4949 272.6196 15.06396374240587
STARLINK-2041           
1 47657U 21012AP  25174.35258183  .00000745  00000+0  68927-4 0  9990
2 47657  53.0537 155.8259 0001296  82.2491 277.8645 15.06402933240382
